IRIDIUM 119             
1 42959U 17061E   25167.74896763  .00000009  00000+0 -39162-5 0  9990
2 42959  86.3992 177.9692 0002559  93.3308 266.8181 14.34217750402435
IRIDIUM 107             
1 42960U 17061F   25167.76799457  .00000063  00000+0  15419-4 0  9993
2 42960  86.3992 177.9804 0002785  85.3575 274.7939 14.34217939402449
IRIDIUM 132             
1 42961U 17061G   25167.07665211  .00000016  00000+0 -15041-5 0  9999
2 42961  86.3997 178.2511 0002330  88.2675 271.8787 14.34217540402349
IRIDIUM 136             
1 42962U 17061H   25167.73628207  .00000021  00000+0  52776-6 0  9999
2 42962  86.3993 177.9806 0002602  91.5748 268.5746 14.34217844402456
IRIDIUM 139             
1 42963U 17061J   25167.74262449  .00000040  00000+0  73197-5 0  9993
2 42963  86.3993 178.0337 0002581  86.8557 273.2934 14.34217851402460
IRIDIUM 125             
1 42964U 17061K   25167.72994002  .00000020  00000+0 -40036-7 0  9996
2 42964  86.4002 178.0935 0002857  93.6771 266.4751 14.34217856402474
IRIDIUM 135             
1 43070U 17083A   25167.56452738  .00000050  00000+0  10745-4 0  9999
2 43070  86.3964 114.8798 0002070  84.5258 275.6174 14.34217766391748
IRIDIUM 138             
1 43071U 17083B   25167.58989763  .00000001  00000+0 -68112-5 0  9994
2 43071  86.3956 114.5400 0002379  97.2478 262.8988 14.34217848391735
